ZIYUAN 3-2 (ZY 3-2)     
1 41556U 16033A   17345.84918735  .00000422  00000-0  22010-4 0  9996
2 41556  97.4475  60.9206 0001386  78.6246  62.4853 15.21223619 85253
